{
  "type": "FeatureCollection",
  "features": [
    {
      "type": "Feature",
      "properties": {
        "norad_id": 31307,
        "name": "GALAXY 17 (G-17)",
        "group": "intelsat",
        "lat": 0.12461352327877433,
        "lon": -101.0724112549971,
        "alt_km": 35762.26925681561,
        "timestamp": "2025-12-26T16:33:55.251309+00:00",
        "meta_object_name": "GALAXY 17 (G-17)",
        "meta_object_id": "2007-016B",
        "meta_epoch": "2025-12-26T06:09:02.888352",
        "meta_mean_motion": 1.00271899,
        "meta_eccentricity": 0.00056352,
        "meta_inclination": 2.532,
        "meta_ra_of_asc_node": 82.1295,
        "meta_arg_of_pericenter": 173.5146,
        "meta_mean_anomaly": 206.6352,
        "meta_ephemeris_type": 0,
        "meta_classification_type": "U",
        "meta_norad_cat_id": 31307,
        "meta_element_set_no": 999,
        "meta_rev_at_epoch": 6807,
        "meta_bstar": 0,
        "meta_mean_motion_dot": -1.85e-06,
        "meta_mean_motion_ddot": 0,
        "tle_line1": "1 31307U 07016B   25360.25628343 -.00000185  00000+0  00000+0 0  9990",
        "tle_line2": "2 31307   2.5320  82.1295 0005635 173.5146 206.6352  1.00271899 68073"
      },
      "geometry": {
        "type": "Point",
        "coordinates": [
          -101.0724112549971,
          0.12461352327877433
        ]
      }
    },
    {
      "type": "Feature",
      "properties": {
        "norad_id": 31862,
        "name": "DIRECTV 10",
        "group": "intelsat",
        "lat": -0.0034353161830312368,
        "lon": -118.8382782703812,
        "alt_km": 35780.368332856655,
        "timestamp": "2025-12-26T16:33:55.251319+00:00",
        "meta_object_name": "DIRECTV 10",
        "meta_object_id": "2007-032A",
        "meta_epoch": "2025-12-25T09:09:15.831072",
        "meta_mean_motion": 1.00280696,
        "meta_eccentricity": 7.66e-05,
        "meta_inclination": 0.0126,
        "meta_ra_of_asc_node": 126.575,
        "meta_arg_of_pericenter": 111.4706,
        "meta_mean_anomaly": 250.6263,
        "meta_ephemeris_type": 0,
        "meta_classification_type": "U",
        "meta_norad_cat_id": 31862,
        "meta_element_set_no": 999,
        "meta_rev_at_epoch": 4385,
        "meta_bstar": 0,
        "meta_mean_motion_dot": -8.3e-07,
        "meta_mean_motion_ddot": 0,
        "tle_line1": "1 31862U 07032A   25359.38143323 -.00000083  00000+0  00000+0 0  9993",
        "tle_line2": "2 31862   0.0126 126.5750 0000766 111.4706 250.6263  1.00280696 43852"
      },
      "geometry": {
        "type": "Point",
        "coordinates": [
          -118.8382782703812,
          -0.0034353161830312368
        ]
      }
    },
    {
      "type": "Feature",
      "properties": {
        "norad_id": 32253,
        "name": "INTELSAT 11 (IS-11)",
        "group": "intelsat",
        "lat": 2.8889483564557725,
        "lon": 148.17238016182537,
        "alt_km": 36140.10280268482,
        "timestamp": "2025-12-26T16:33:55.251330+00:00",
        "meta_object_name": "INTELSAT 11 (IS-11)",
        "meta_object_id": "2007-044B",
        "meta_epoch": "2025-12-26T05:07:38.649792",
        "meta_mean_motion": 0.99053068,
        "meta_eccentricity": 0.00086433,
        "meta_inclination": 3.1133,
        "meta_ra_of_asc_node": 80.8253,
        "meta_arg_of_pericenter": 171.7827,
        "meta_mean_anomaly": 85.7476,
        "meta_ephemeris_type": 0,
        "meta_classification_type": "U",
        "meta_norad_cat_id": 32253,
        "meta_element_set_no": 999,
        "meta_rev_at_epoch": 6673,
        "meta_bstar": 0,
        "meta_mean_motion_dot": -2.11e-06,
        "meta_mean_motion_ddot": 0,
        "tle_line1": "1 32253U 07044B   25360.21364178 -.00000211  00000+0  00000+0 0  9991",
        "tle_line2": "2 32253   3.1133  80.8253 0008643 171.7827  85.7476  0.99053068 66737"
      },
      "geometry": {
        "type": "Point",
        "coordinates": [
          148.17238016182537,
          2.8889483564557725
        ]
      }
    },
    {
      "type": "Feature",
      "properties": {
        "norad_id": 32388,
        "name": "HORIZONS-2",
        "group": "intelsat",
        "lat": -0.29120147547447756,
        "lon": -89.91978192046064,
        "alt_km": 35766.75320946568,
        "timestamp": "2025-12-26T16:33:55.251341+00:00",
        "meta_object_name": "HORIZONS-2",
        "meta_object_id": "2007-063B",
        "meta_epoch": "2025-12-26T06:14:53.168640",
        "meta_mean_motion": 1.0026905,
        "meta_eccentricity": 0.00048408,
        "meta_inclination": 2.1547,
        "meta_ra_of_asc_node": 82.8127,
        "meta_arg_of_pericenter": 197.3042,
        "meta_mean_anomaly": 194.8048,
        "meta_ephemeris_type": 0,
        "meta_classification_type": "U",
        "meta_norad_cat_id": 32388,
        "meta_element_set_no": 999,
        "meta_rev_at_epoch": 6608,
        "meta_bstar": 0,
        "meta_mean_motion_dot": -2.32e-06,
        "meta_mean_motion_ddot": 0,
        "tle_line1": "1 32388U 07063B   25360.26033760 -.00000232  00000+0  00000+0 0  9999",
        "tle_line2": "2 32388   2.1547  82.8127 0004840 197.3042 194.8048  1.00269050 66082"
      },
      "geometry": {
        "type": "Point",
        "coordinates": [
          -89.91978192046064,
          -0.29120147547447756
        ]
      }
    },
    {
      "type": "Feature",
      "properties": {
        "norad_id": 32729,
        "name": "DIRECTV 11",
        "group": "intelsat",
        "lat": 0.010297207194007688,
        "lon": -115.35958030232922,
        "alt_km": 35785.61528311171,
        "timestamp": "2025-12-26T16:33:55.251351+00:00",
        "meta_object_name": "DIRECTV 11",
        "meta_object_id": "2008-013A",
        "meta_epoch": "2025-12-24T22:53:59.758368",
        "meta_mean_motion": 1.00260442,
        "meta_eccentricity": 0.0001047,
        "meta_inclination": 0.0475,
        "meta_ra_of_asc_node": 199.7105,
        "meta_arg_of_pericenter": 11.4593,
        "meta_mean_anomaly": 126.8496,
        "meta_ephemeris_type": 0,
        "meta_classification_type": "U",
        "meta_norad_cat_id": 32729,
        "meta_element_set_no": 999,
        "meta_rev_at_epoch": 4384,
        "meta_bstar": 0,
        "meta_mean_motion_dot": -1.03e-06,
        "meta_mean_motion_ddot": 0,
        "tle_line1": "1 32729U 08013A   25358.95416387 -.00000103  00000+0  00000+0 0  9994",
        "tle_line2": "2 32729   0.0475 199.7105 0001047  11.4593 126.8496  1.00260442 43842"
      },
      "geometry": {
        "type": "Point",
        "coordinates": [
          -115.35958030232922,
          0.010297207194007688
        ]
      }
    },
    {
      "type": "Feature",
      "properties": {
        "norad_id": 32951,
        "name": "GALAXY 18 (G-18)",
        "group": "intelsat",
        "lat": -0.023350604822439256,
        "lon": -139.1295623320222,
        "alt_km": 35779.5842246638,
        "timestamp": "2025-12-26T16:33:55.251362+00:00",
        "meta_object_name": "GALAXY 18 (G-18)",
        "meta_object_id": "2008-024A",
        "meta_epoch": "2025-12-26T05:48:41.061888",
        "meta_mean_motion": 1.00271927,
        "meta_eccentricity": 0.000322,
        "meta_inclination": 0.0165,
        "meta_ra_of_asc_node": 352.4727,
        "meta_arg_of_pericenter": 290.2887,
        "meta_mean_anomaly": 136.3978,
        "meta_ephemeris_type": 0,
        "meta_classification_type": "U",
        "meta_norad_cat_id": 32951,
        "meta_element_set_no": 999,
        "meta_rev_at_epoch": 4411,
        "meta_bstar": 0,
        "meta_mean_motion_dot": 4.7e-07,
        "meta_mean_motion_ddot": 0,
        "tle_line1": "1 32951U 08024A   25360.24214192  .00000047  00000+0  00000+0 0  9994",
        "tle_line2": "2 32951   0.0165 352.4727 0003220 290.2887 136.3978  1.00271927 44113"
      },
      "geometry": {
        "type": "Point",
        "coordinates": [
          -139.1295623320222,
          -0.023350604822439256
        ]
      }
    },
    {
      "type": "Feature",
      "properties": {
        "norad_id": 33153,
        "name": "INTELSAT 25 (IS-25)",
        "group": "intelsat",
        "lat": -1.7477028189948238,
        "lon": -47.572997018487364,
        "alt_km": 35770.2502879898,
        "timestamp": "2025-12-26T16:33:55.251373+00:00",
        "meta_object_name": "INTELSAT 25 (IS-25)",
        "meta_object_id": "2008-034A",
        "meta_epoch": "2025-12-26T00:24:38.640960",
        "meta_mean_motion": 1.00271587,
        "meta_eccentricity": 0.0004961,
        "meta_inclination": 2.2599,
        "meta_ra_of_asc_node": 82.5049,
        "meta_arg_of_pericenter": 190.2408,
        "meta_mean_anomaly": 156.6895,
        "meta_ephemeris_type": 0,
        "meta_classification_type": "U",
        "meta_norad_cat_id": 33153,
        "meta_element_set_no": 999,
        "meta_rev_at_epoch": 6395,
        "meta_bstar": 0,
        "meta_mean_motion_dot": -2.03e-06,
        "meta_mean_motion_ddot": 0,
        "tle_line1": "1 33153U 08034A   25360.01711390 -.00000203  00000+0  00000+0 0  9992",
        "tle_line2": "2 33153   2.2599  82.5049 0004961 190.2408 156.6895  1.00271587 63950"
      },
      "geometry": {
        "type": "Point",
        "coordinates": [
          -47.572997018487364,
          -1.7477028189948238
        ]
      }
    }
  ]
}